[{"OBJECT_NAME":"STARLINK-34984","OBJECT_ID":"2025-184T","EPOCH":"2026-03-09T16:53:00.151872","MEAN_MOTION":15.05647339,"ECCENTRICITY":8.635e-5,"INCLINATION":97.6033,"RA_OF_ASC_NODE":122.6862,"ARG_OF_PERICENTER":113.8583,"MEAN_ANOMALY":246.2734,"EPHEMERIS_TYPE":0,"CLASSIFICATION_TYPE":"U","NORAD_CAT_ID":65290,"ELEMENT_SET_NO":999,"REV_AT_EPOCH":3130,"BSTAR":0.00010638319,"MEAN_MOTION_DOT":1.474e-5,"MEAN_MOTION_DDOT":0},{"OBJECT_NAME":"STUDSAT","OBJECT_ID":"2010-035B","EPOCH":"2026-03-09T18:37:00.077376","MEAN_MOTION":15.04045903,"ECCENTRICITY":0.00117838,"INCLINATION":98.1026,"RA_OF_ASC_NODE":330.9975,"ARG_OF_PERICENTER":15.8359,"MEAN_ANOMALY":344.3232,"EPHEMERIS_TYPE":0,"CLASSIFICATION_TYPE":"U","NORAD_CAT_ID":36796,"ELEMENT_SET_NO":999,"REV_AT_EPOCH":85020,"BSTAR":0.00039642444,"MEAN_MOTION_DOT":5.425e-5,"MEAN_MOTION_DDOT":0}]
